STARLINK-1169           
1 45061U 20006T   26192.84209837  .00035331  00000+0  83341-3 0  9991
2 45061  53.1535  59.5210 0004864  86.0643 274.0919 15.41575454355625
STARLINK-1171           
1 45062U 20006U   26192.75458832  .00065457  00000+0  34856-3 0  9992
2 45062  53.0381 354.9367 0001017 339.8880  20.2101 15.79848368356496
STARLINK-1133           
1 45064U 20006W   26192.85724252  .00023439  00000+0  62928-3 0  9992
2 45064  53.1548  38.5098 0003889 115.5590 244.5817 15.37848377355922
STARLINK-1168           
1 45072U 20006AE  26192.82965161  .00031594  00000+0  82923-3 0  9992
2 45072  53.1570  38.7561 0003275 105.9363 254.2003 15.38384309355918
STARLINK-1153           
1 45080U 20006AN  26192.84970266  .00033810  00000+0  82565-3 0  9990
2 45080  53.1565  36.8903 0004349  62.7089 297.4359 15.40551194355945
STARLINK-1152           
1 45096U 20006BE  26192.86732392  .00050034  00000+0  78553-3 0  9994
2 45096  53.0325 334.2105 0003285 264.5385  95.5249 15.53184866356794
STARLINK-1184           
1 45098U 20006BG  26192.84575250  .00016259  00000+0  85546-3 0  9993
2 45098  53.0511  42.2403 0004494 133.7007 226.4359 15.15788570355832
STARLINK-1193           
1 45100U 20006BJ  26192.64458150  .00048771  00000+0  37444-3 0  9992
2 45100  53.0468 342.5534 0003454  48.4666 311.6647 15.71589162356652
ONEWEB-0013             
1 45131U 20008A   26192.62148431 -.00000680  00000+0 -20121-2 0  9996
2 45131  87.8493  47.8928 0001075  53.1561 306.9665 13.09457021309264
ONEWEB-0017             
1 45132U 20008B   26192.58687565 -.00000589  00000+0 -17226-2 0  9998
2 45132  87.8817  31.4056 0001982  92.5658 267.5696 13.10376003311145
ONEWEB-0020             
1 45133U 20008C   26192.55632762  .00000344  00000+0  95034-3 0  9996
2 45133  87.8816  31.4111 0001830  85.4519 274.6817 13.10369611311530
ONEWEB-0021             
1 45134U 20008D   26192.57157820 -.00000485  00000+0 -14265-2 0  9990
2 45134  87.8811  31.4226 0001696  90.2338 269.8983 13.10369968311845
ONEWEB-0023             
1 45136U 20008F   26192.58260796 -.00000624  00000+0 -18234-2 0  9995
2 45136  87.8821  31.4043 0001840  82.1354 277.9982 13.10371853311276
ONEWEB-0024             
1 45137U 20008G   26192.55476077  .00000419  00000+0  11633-2 0  9990
2 45137  87.8831  31.4043 0001883  92.6298 267.5045 13.10369466311438
ONEWEB-0025             
1 45138U 20008H   26192.55448987  .00000387  00000+0  10723-2 0  9993
2 45138  87.8828  31.3936 0002216  82.7261 277.4118 13.10369162311766
ONEWEB-0026             
1 45139U 20008J   26192.57354025  .00000689  00000+0  19076-2 0  9990
2 45139  87.8873  16.2107 0002033  92.0830 268.0530 13.11417570314307
ONEWEB-0028             
1 45140U 20008K   26192.54894522 -.00000277  00000+0 -81628-3 0  9998
2 45140  87.8875  16.2235 0001359  79.6856 280.4425 13.11417959311817
ONEWEB-0035             
1 45143U 20008N   26192.58361579 -.00000590  00000+0 -17256-2 0  9999
2 45143  87.8814  31.4081 0001845  90.0704 270.0635 13.10377752311138
ONEWEB-0038             
1 45145U 20008Q   26192.50755449  .00000485  00000+0  13329-2 0  9994
2 45145  87.8876  16.2363 0001708 148.4619 211.6611 13.11415639313510
ONEWEB-0039             
1 45146U 20008R   26192.56650129 -.00000097  00000+0 -31390-3 0  9990
2 45146  87.8814  31.4089 0001291  74.7490 285.3780 13.10371447311354
