OBJECT_NAME,OBJECT_ID,EPOCH,MEAN_MOTION,ECCENTRICITY,INCLINATION,RA_OF_ASC_NODE,ARG_OF_PERICENTER,MEAN_ANOMALY,EPHEMERIS_TYPE,CLASSIFICATION_TYPE,NORAD_CAT_ID,ELEMENT_SET_NO,REV_AT_EPOCH,BSTAR,MEAN_MOTION_DOT,MEAN_MOTION_DDOT
STARLINK-1169,2020-006T,2026-07-11T20:12:37.299168,15.41575454,.0004865,53.1535,59.5210,86.0643,274.0919,0,U,45061,999,35562,.83341E-3,.35331E-3,0
STARLINK-1171,2020-006U,2026-07-11T18:06:36.429984,15.79848368,.0001017,53.0381,354.9367,339.8880,20.2101,0,U,45062,999,35649,.34856E-3,.65457E-3,0
STARLINK-1133,2020-006W,2026-07-11T20:34:25.752864,15.37848377,.000389,53.1548,38.5098,115.5590,244.5817,0,U,45064,999,35592,.62928E-3,.23439E-3,0
STARLINK-1168,2020-006AE,2026-07-11T19:54:41.899104,15.38384309,.0003276,53.1570,38.7561,105.9363,254.2003,0,U,45072,999,35591,.82923E-3,.31594E-3,0
STARLINK-1153,2020-006AN,2026-07-11T20:23:34.308960,15.40551193,.0004349,53.1565,36.8903,62.7089,297.4359,0,U,45080,999,35594,.82565E-3,.3381E-3,0
STARLINK-1152,2020-006BE,2026-07-11T20:48:56.785824,15.53184865,.0003285,53.0325,334.2105,264.5385,95.5249,0,U,45096,999,35679,.78553E-3,.50034E-3,0
STARLINK-1184,2020-006BG,2026-07-11T20:17:53.016000,15.15788570,.0004495,53.0511,42.2403,133.7007,226.4359,0,U,45098,999,35583,.85546E-3,.16259E-3,0
STARLINK-1193,2020-006BJ,2026-07-11T15:28:11.840736,15.71589162,.0003455,53.0468,342.5534,48.4666,311.6647,0,U,45100,999,35665,.37444E-3,.48771E-3,0
ONEWEB-0013,2020-008A,2026-07-11T14:54:56.244384,13.09457021,.0001075,87.8493,47.8928,53.1561,306.9665,0,U,45131,999,30926,-.20121E-2,-.68E-5,0
ONEWEB-0017,2020-008B,2026-07-11T14:05:06.056160,13.10376003,.0001982,87.8817,31.4056,92.5658,267.5696,0,U,45132,999,31114,-.17226E-2,-.589E-5,0
ONEWEB-0020,2020-008C,2026-07-11T13:21:06.706368,13.10369611,.000183,87.8816,31.4111,85.4519,274.6817,0,U,45133,999,31153,.95034E-3,.344E-5,0
ONEWEB-0021,2020-008D,2026-07-11T13:43:04.355616,13.10369968,.0001696,87.8811,31.4226,90.2338,269.8983,0,U,45134,999,31184,-.14265E-2,-.485E-5,0
ONEWEB-0023,2020-008F,2026-07-11T13:58:57.326880,13.10371853,.000184,87.8821,31.4043,82.1354,277.9982,0,U,45136,999,31127,-.18234E-2,-.624E-5,0
ONEWEB-0024,2020-008G,2026-07-11T13:18:51.329664,13.10369466,.0001884,87.8831,31.4043,92.6298,267.5045,0,U,45137,999,31143,.11633E-2,.419E-5,0
ONEWEB-0025,2020-008H,2026-07-11T13:18:27.923904,13.10369162,.0002216,87.8828,31.3936,82.7261,277.4118,0,U,45138,999,31176,.10723E-2,.387E-5,0
ONEWEB-0026,2020-008J,2026-07-11T13:45:53.876736,13.11417570,.0002034,87.8873,16.2107,92.0830,268.0530,0,U,45139,999,31430,.19076E-2,.689E-5,0
ONEWEB-0028,2020-008K,2026-07-11T13:10:28.867008,13.11417959,.0001359,87.8875,16.2235,79.6856,280.4425,0,U,45140,999,31181,-.81628E-3,-.277E-5,0
ONEWEB-0035,2020-008N,2026-07-11T14:00:24.404256,13.10377752,.0001845,87.8814,31.4081,90.0704,270.0635,0,U,45143,999,31113,-.17256E-2,-.59E-5,0
ONEWEB-0038,2020-008Q,2026-07-11T12:10:52.707936,13.11415639,.0001708,87.8876,16.2363,148.4619,211.6611,0,U,45145,999,31351,.13328835E-2,.485E-5,0
ONEWEB-0039,2020-008R,2026-07-11T13:35:45.710592,13.10371446,.0001291,87.8814,31.4089,74.7490,285.3780,0,U,45146,999,31135,-.3139E-3,-.97E-6,0
